MEAN_MOTION;ECCENTRICITY;INCLINATION;RA_OF_ASC_NODE;ARG_OF_PERICENTER;MEAN_ANOMALY;BSTAR;MEAN_MOTION_DOT;MEAN_MOTION_DDOT;TYPE
12.86527431;0.0001079;66.0842;72.7611;0.5662;21.6327;1.2207E-5;-5.9E-7;0;Amateur
12.86527371;0.00011;66.0832;71.9111;0.9617;101.0552;-2.7561E-5;-6.9E-7;0;Amateur
12.86527423;0.0001181;66.0845;69.6018;0.1459;166.4262;4.3082E-5;-5.1E-7;0;Amateur
12.86527426;0.0001216;66.0846;68.524;0.1408;29.2409;3.5883E-5;-5.3E-7;0;Amateur
12.86527432;0.000125;66.0846;67.6715;359.8716;114.1929;3.9668E-5;-5.2E-7;0;Amateur
12.86527447;0.0001268;66.0847;66.8838;359.5352;55.703;2.6375E-5;-5.5E-7;0;Amateur
12.86527444;0.0001308;66.0848;65.5381;359.4238;151.0109;-3.1716E-6;-6.3E-7;0;Amateur
12.86527264;0.0001402;66.0839;62.3379;359.5462;26.2617;-5.0199E-5;-7.4E-7;0;Amateur
12.86527338;0.0001403;66.0839;62.1383;359.572;107.4853;-2.63E-5;-6.8E-7;0;Amateur
12.86527399;0.000147;66.0852;60.2189;358.7936;31.2358;-5.69E-5;-7.6E-7;0;Amateur
12.86527436;0.0001514;66.0854;58.5791;358.1666;56.9371;-4.8878E-5;-7.4E-7;0;Amateur
12.86527412;0.0001553;66.0854;57.5822;358.1846;100.9885;-6.4794E-5;-7.8E-7;0;Amateur
12.86527403;0.0001564;66.0855;56.9361;358.0917;89.3093;-7.395E-5;-8.0E-7;0;Amateur
12.86527386;0.0001618;66.0857;55.1507;357.8163;76.6355;-6.8189E-5;-7.9E-7;0;Amateur
12.86527351;0.0001675;66.0858;53.3493;357.4086;99.7598;-4.6069E-5;-7.3E-7;0;Amateur
12.8652739;0.0001696;66.0859;52.7006;357.4534;93.7543;-1.769E-5;-6.6E-7;0;Amateur
12.86527388;0.0001749;66.0861;50.9151;357.4097;81.2625;1.768E-5;-5.7E-7;0;Amateur
12.86527376;0.0001809;66.0863;48.9289;357.3907;152.6616;1.4289E-5;-5.8E-7;0;Amateur
12.86527374;0.0001847;66.0864;47.664;357.405;69.2539;-7.2332E-6;-6.4E-7;0;Amateur
12.86527326;0.000188;66.0853;46.5146;357.3182;91.6814;-4.0973E-5;-7.2E-7;0;Amateur
12.86527347;0.0001916;66.0854;45.548;357.2618;68.745;-2.2179E-5;-6.7E-7;0;Amateur
12.8652736;0.0001955;66.0868;44.3961;356.5748;95.2319;6.7061E-6;-6.0E-7;0;Amateur
12.86527354;0.0001979;66.0868;43.4341;356.5173;62.23;-5.7951E-7;-6.2E-7;0;Amateur
12.86527231;0.0002039;66.0858;41.3175;356.5884;63.0726;-5.9912E-5;-7.7E-7;0;Amateur
12.86527206;0.0002101;66.086;39.358;356.3993;75.892;-5.7889E-5;-7.6E-7;0;Amateur
12.865272;0.0002104;66.086;39.2004;356.4774;64.3612;-5.9836E-5;-7.7E-7;0;Amateur
12.86527197;0.0002168;66.0861;37.2438;356.1264;70.6039;-5.3681E-5;-7.5E-7;0;Amateur
12.86527184;0.0002192;66.0861;36.3892;356.1652;159.9514;-5.2181E-5;-7.5E-7;0;Amateur
12.86527173;0.0002228;66.0862;35.1302;356.0526;63.5662;-5.153E-5;-7.5E-7;0;Amateur
12.86527162;0.0002285;66.0862;33.0135;355.7989;63.6711;-4.4899E-5;-7.3E-7;0;Amateur
12.86527168;0.0002314;66.0863;32.0239;355.786;91.6012;-3.3976E-5;-7.0E-7;0;Amateur
12.86527164;0.0002343;66.0863;30.8964;355.733;64.6198;-3.5472E-5;-7.1E-7;0;Amateur
12.86527162;0.0002365;66.0864;30.1973;355.7243;170.4825;-3.0915E-5;-6.9E-7;0;Amateur
12.86527147;0.000264;66.0867;20.4693;354.5455;80.8155;-1.9772E-5;-6.7E-7;0;Amateur
12.86527217;0.0002669;66.0881;19.8178;354.2847;81.5744;3.3996E-5;-5.3E-7;0;Amateur
12.86527221;0.0002714;66.0882;18.356;354.091;74.192;3.0396E-5;-5.4E-7;0;Amateur
12.86527247;0.0002779;66.0882;16.2359;353.8101;82.3;2.4028E-5;-5.6E-7;0;Amateur
12.86527268;0.0002838;66.0882;14.2892;353.7476;66.9999;-8.6721E-6;-6.4E-7;0;Amateur
12.86527242;0.0002836;66.0882;14.1126;353.8154;97.1824;-1.6972E-5;-6.6E-7;0;Amateur
12.86527277;0.0002901;66.0881;11.9976;353.826;93.9723;-1.3593E-5;-6.5E-7;0;Amateur
12.86527314;0.0002961;66.0881;10.0507;353.5439;79.0847;1.5681E-5;-5.8E-7;0;Amateur
12.86527309;0.0002966;66.0881;9.8753;353.4995;106.8256;2.1707E-5;-5.6E-7;0;Amateur
12.86527313;0.0003036;66.088;7.7619;353.1045;100.1237;2.7866E-5;-5.5E-7;0;Amateur
12.86527359;0.000309;66.0879;5.8163;352.9439;82.1106;3.1467E-5;-5.4E-7;0;Amateur
12.86527337;0.0003144;66.0878;3.6988;352.6505;84.4967;3.3368E-5;-5.3E-7;0;Amateur
12.86527378;0.0003196;66.0878;1.7472;352.4014;79.9125;8.0952E-5;-4.2E-7;0;Amateur
12.86527378;0.0003219;66.0877;1.0527;352.2502;175.2589;0.0001006;-3.7E-7;0;Amateur
12.86527374;0.0003268;66.0876;359.4628;351.9516;90.8443;8.9432E-5;-3.9E-7;0;Amateur
12.86527393;0.0003339;66.0875;357.3451;351.6474;93.3912;6.8317E-5;-4.5E-7;0;Amateur
12.86527401;0.0003357;66.0875;356.8583;351.6748;89.6398;6.3224E-5;-4.6E-7;0;Amateur
12.86527422;0.0003399;66.0874;355.2261;351.4697;98.5125;5.9075E-5;-4.7E-7;0;Amateur
12.86527466;0.0003455;66.0873;353.2762;351.1968;90.2578;7.2696E-5;-4.4E-7;0;Amateur
12.86527463;0.000347;66.0873;352.9396;351.1278;114.6184;7.4903E-5;-4.3E-7;0;Amateur
12.86527482;0.0003518;66.0871;351.3262;350.9147;82.0337;5.2559E-5;-4.9E-7;0;Amateur
12.86527474;0.0003523;66.0871;351.1592;350.8671;91.3137;5.1887E-5;-4.9E-7;0;Amateur
12.86527477;0.0003542;66.0871;350.8018;350.8378;161.5611;5.0599E-5;-4.9E-7;0;Amateur
12.86527491;0.0003605;66.087;348.7005;350.5689;127.8076;1.0569E-5;-5.9E-7;0;Amateur
12.86527469;0.0003633;66.0868;347.0911;350.4673;86.2812;-1.7259E-5;-6.6E-7;0;Amateur
12.86527469;0.0003638;66.0868;346.9224;350.4274;99.3055;-1.0334E-5;-6.4E-7;0;Amateur
12.86527486;0.0003705;66.0866;344.8018;350.103;107.8281;1.8736E-5;-5.7E-7;0;Amateur
12.86527511;0.0003749;66.0865;342.6802;349.9747;118.6806;4.0655E-5;-5.2E-7;0;Amateur
12.86527517;0.0003754;66.0864;342.5182;349.9707;116.9754;4.3185E-5;-5.1E-7;0;Amateur
12.8652754;0.0003803;66.0863;340.5682;349.6964;108.371;4.5976E-5;-5.0E-7;0;Amateur
12.86527538;0.0003857;66.0862;338.6165;349.4386;103.5238;4.9774E-5;-4.9E-7;0;Amateur
12.86527541;0.0003868;66.0861;338.2631;349.4256;164.6975;5.7079E-5;-4.8E-7;0;Amateur
12.86527565;0.0003916;66.086;336.4985;349.1928;106.2536;8.9579E-5;-3.9E-7;0;Amateur
12.86527575;0.0003958;66.0859;334.3749;348.9637;121.16;9.407E-5;-3.8E-7;0;Amateur
12.86527489;0.0003975;66.0846;334.0253;348.9261;173.6254;1.7041E-5;-5.8E-7;0;Amateur
12.86527504;0.0004026;66.0844;332.263;348.6843;110.0429;1.9436E-5;-5.7E-7;0;Amateur
12.86527602;0.0004071;66.0856;330.8106;348.4587;81.6396;3.5193E-5;-5.3E-7;0;Amateur
12.86527616;0.000409;66.0856;330.1438;348.3785;115.9419;4.7609E-5;-5.0E-7;0;Amateur
12.86527634;0.0004129;66.0855;329.0158;348.2056;89.9841;4.9583E-5;-4.9E-7;0;Amateur
12.86527644;0.0004134;66.0855;328.6986;348.1715;71.3179;4.2613E-5;-5.1E-7;0;Amateur
12.86527642;0.000416;66.0855;328.0274;348.0575;115.2523;5.1984E-5;-4.9E-7;0;Amateur
12.86527701;0.0004221;66.0853;325.89;347.803;160.9341;6.0887E-5;-4.7E-7;0;Amateur
12.86527721;0.0004254;66.0852;324.813;347.673;21.9948;4.0877E-5;-5.2E-7;0;Amateur
12.86527774;0.0004276;66.0852;323.7898;347.5503;124.2694;4.6835E-5;-5.0E-7;0;Amateur
12.86527768;0.0004314;66.0851;322.1776;347.3173;88.5263;8.6991E-6;-6.0E-7;0;Amateur
12.86527799;0.000436;66.085;320.5717;347.0966;38.8487;2.7354E-5;-5.5E-7;0;Amateur
12.86527843;0.0004427;66.0849;318.1093;346.7509;82.9315;6.5711E-5;-4.5E-7;0;Amateur
12.86527815;0.0004484;66.0848;315.6545;346.3989;110.1071;4.9064E-5;-5.0E-7;0;Amateur
12.86527841;0.0004483;66.0848;315.4848;346.3821;125.3394;5.8564E-5;-4.7E-7;0;Amateur
12.86527797;0.0004516;66.0848;314.0347;346.1573;91.0511;2.1282E-5;-5.6E-7;0;Amateur
12.86527801;0.0004557;66.0848;313.5357;346.202;114.1536;4.4714E-5;-5.1E-7;0;Amateur
12.86527836;0.00046;66.0848;311.917;345.927;92.7154;6.7197E-5;-4.5E-7;0;Amateur
12.86527835;0.0004618;66.0848;311.414;345.8683;124.9164;8.4275E-5;-4.1E-7;0;Amateur
12.86527875;0.0004674;66.0848;309.2985;345.5401;121.8403;0.0001026;-3.6E-7;0;Amateur
12.86527896;0.0004707;66.0848;308.03;345.3486;46.2285;7.4846E-5;-4.3E-7;0;Amateur
12.86527898;0.0004775;66.0848;305.8977;345.1329;80.4422;2.8272E-5;-5.5E-7;0;Amateur
12.86527937;0.0004848;66.0849;303.1116;344.6204;120.5449;2.5145E-5;-5.5E-7;0;Amateur
12.86527931;0.0004894;66.0848;301.667;344.4794;74.2449;1.3513E-6;-6.1E-7;0;Amateur
12.86527916;0.0004901;66.0849;300.9749;344.2805;164.5516;-3.1547E-6;-6.3E-7;0;Amateur
12.86527913;0.0004964;66.0849;298.8762;344.0619;124.5414;-3.706E-5;-7.1E-7;0;Amateur
12.86527899;0.0005017;66.0849;296.7539;343.7426;136.7663;-5.8528E-5;-7.6E-7;0;Amateur
12.86527881;0.0005053;66.085;295.4762;343.5708;81.5526;-6.4067E-5;-7.8E-7;0;Amateur
12.86527867;0.0005067;66.085;294.9768;343.4772;105.7262;-4.851E-5;-7.4E-7;0;Amateur
12.86527828;0.0005125;66.0839;292.6905;343.263;121.0128;-6.0677E-6;-6.3E-7;0;Amateur
12.86527816;0.0005162;66.084;291.2452;343.0701;76.543;-1.5012E-5;-6.6E-7;0;Amateur
12.86527814;0.0005188;66.084;290.3801;342.9516;189.1546;-1.3804E-5;-6.5E-7;0;Amateur
12.86527761;0.0005236;66.084;288.6214;342.7895;117.4308;-3.5976E-5;-7.1E-7;0;Amateur
12.8652773;0.0005278;66.0841;287.0029;342.491;95.9034;-5.1452E-5;-7.5E-7;0;Amateur
12.86527723;0.0005295;66.0841;286.5038;342.5128;119.3265;-4.8481E-5;-7.4E-7;0;Amateur
12.86527765;0.0005357;66.0841;284.1977;342.1274;178.1942;-1.9065E-5;-6.7E-7;0;Amateur
12.86527849;0.0005399;66.0854;282.6023;341.7675;104.9518;5.231E-5;-4.9E-7;0;Amateur
12.86527882;0.0005415;66.0854;282.0724;341.7224;196.5215;5.9842E-5;-4.7E-7;0;Amateur
12.86527907;0.0005461;66.0854;280.1486;341.3255;130.0932;2.8653E-5;-5.5E-7;0;Amateur
12.86527941;0.0005492;66.0855;279.0457;341.1624;48.6145;2.3069E-5;-5.6E-7;0;Amateur
12.86527906;0.0005547;66.0855;276.9287;340.8978;49.5634;-2.263E-6;-6.2E-7;0;Amateur
12.86527895;0.0005577;66.0855;275.9207;340.7033;118.4563;-6.343E-6;-6.3E-7;0;Amateur
12.86527876;0.0005629;66.0856;273.9635;340.4713;126.047;-4.4503E-5;-7.3E-7;0;Amateur
12.86527875;0.0005681;66.0856;272.3498;340.253;94.081;-7.3253E-5;-8.0E-7;0;Amateur
12.86527894;0.0005756;66.0856;269.8763;339.9286;163.3802;-2.6369E-5;-6.8E-7;0;Amateur
12.86527918;0.0005816;66.0856;267.7773;339.6536;124.4258;3.0996E-5;-5.4E-7;0;Amateur
12.8652793;0.0005881;66.0856;265.4694;339.3092;187.5696;5.676E-5;-4.8E-7;0;Amateur
12.86527939;0.0005941;66.0857;263.5384;339.0672;137.6012;5.6482E-5;-4.8E-7;0;Amateur
12.86527936;0.0005985;66.0857;261.9289;338.8576;96.3139;6.0449E-5;-4.7E-7;0;Amateur
12.86528002;0.0006056;66.0857;259.285;338.565;182.1177;0.00012591;-3.0E-7;0;Amateur
12.86528027;0.0006096;66.0857;257.8605;338.341;91.9279;0.00010591;-3.5E-7;0;Amateur
